[{"OBJECT_NAME":"STARLINK-4081","OBJECT_ID":"2022-053E","EPOCH":"2026-03-09T22:51:36.665280","MEAN_MOTION":15.0884594,"ECCENTRICITY":0.00012385,"INCLINATION":53.2172,"RA_OF_ASC_NODE":152.9403,"ARG_OF_PERICENTER":88.7615,"MEAN_ANOMALY":271.3519,"EPHEMERIS_TYPE":0,"CLASSIFICATION_TYPE":"U","NORAD_CAT_ID":52660,"ELEMENT_SET_NO":999,"REV_AT_EPOCH":21115,"BSTAR":-1.3811053e-5,"MEAN_MOTION_DOT":-5.08e-6,"MEAN_MOTION_DDOT":0},{"OBJECT_NAME":"CZ-6A DEB","OBJECT_ID":"2024-126C","EPOCH":"2026-03-09T22:45:09.534528","MEAN_MOTION":15.08339588,"ECCENTRICITY":0.00034995,"INCLINATION":97.8272,"RA_OF_ASC_NODE":88.0703,"ARG_OF_PERICENTER":249.9832,"MEAN_ANOMALY":110.1019,"EPHEMERIS_TYPE":0,"CLASSIFICATION_TYPE":"U","NORAD_CAT_ID":60213,"ELEMENT_SET_NO":999,"REV_AT_EPOCH":9177,"BSTAR":0.0010886629,"MEAN_MOTION_DOT":0.00016868,"MEAN_MOTION_DDOT":0}]
